CCSDS_OMM_VERS,COMMENT,CREATION_DATE,ORIGINATOR,OBJECT_NAME,OBJECT_ID,CENTER_NAME,REF_FRAME,TIME_SYSTEM,MEAN_ELEMENT_THEORY,EPOCH,MEAN_MOTION,ECCENTRICITY,INCLINATION,RA_OF_ASC_NODE,ARG_OF_PERICENTER,MEAN_ANOMALY,EPHEMERIS_TYPE,CLASSIFICATION_TYPE,NORAD_CAT_ID,ELEMENT_SET_NO,REV_AT_EPOCH,BSTAR,MEAN_MOTION_DOT,MEAN_MOTION_DDOT,SEMIMAJOR_AXIS,PERIOD,APOAPSIS,PERIAPSIS,OBJECT_TYPE,RCS_SIZE,COUNTRY_CODE,LAUNCH_DATE,SITE,DECAY_DATE,FILE,GP_ID,TLE_LINE0,TLE_LINE1,TLE_LINE2
2,GENERATED VIA SPACE-TRACK.ORG API,2018-07-04T15:09:51,18 SPCS,JCSAT 2,1990-001B,EARTH,TEME,UTC,SGP4,2018-07-04T08:14:40.959168,0.98539872,0.0061801,13.5205,35.5907,251.4079,107.4672,0,U,20402,999,8669,0.0,-2.19e-06,0,42657.347,1461.337,36542.839,36015.585,PAYLOAD,LARGE,JPN,1990-01-01,AFETR,,2304373,121550003,0 JCSAT 2,1 20402U 90001B   18185.34352962 -.00000219  00000-0  00000+0 0  9997,2 20402  13.5205  35.5907 0061801 251.4079 107.4672  0.98539872 86696
2,GENERATED VIA SPACE-TRACK.ORG API,2018-07-05T08:02:21,18 SPCS,JCSAT 2,1990-001B,EARTH,TEME,UTC,SGP4,2018-07-04T22:22:42.795264,0.98539874,0.0061783,13.5211,35.5849,251.408,316.3873,0,U,20402,999,8671,0.0,-2.22e-06,0,42657.346,1461.337,36542.761,36015.661,PAYLOAD,LARGE,JPN,1990-01-01,AFETR,,2304631,121569376,0 JCSAT 2,1 20402U 90001B   18185.93243976 -.00000222 +00000-0 +00000-0 0  9991,2 20402 013.5211 035.5849 0061783 251.4080 316.3873 00.98539874086718
2,GENERATED VIA SPACE-TRACK.ORG API,2018-07-05T21:38:36,18 SPCS,JCSAT 2,1990-001B,EARTH,TEME,UTC,SGP4,2018-07-05T08:20:08.829024,0.98539823,0.0061779,13.5216,35.5808,251.4114,103.566,0,U,20402,999,8671,0.0,-2.23e-06,0,42657.361,1461.338,36542.759,36015.693,PAYLOAD,LARGE,JPN,1990-01-01,AFETR,,2304841,121582736,0 JCSAT 2,1 20402U 90001B   18186.34732441 -.00000223 +00000-0 +00000-0 0  9998,2 20402 013.5216 035.5808 0061779 251.4114 103.5660 00.98539823086715
2,GENERATED VIA SPACE-TRACK.ORG API,2018-07-06T05:28:56,18 SPCS,JCSAT 2,1990-001B,EARTH,TEME,UTC,SGP4,2018-07-05T20:22:33.243168,0.9853979,0.0061761,13.5221,35.5758,251.4109,281.5383,0,U,20402,999,8672,0.0,-2.24e-06,0,42657.371,1461.338,36542.692,36015.779,PAYLOAD,LARGE,JPN,1990-01-01,AFETR,,2304874,121593280,0 JCSAT 2,1 20402U 90001B   18186.84899587 -.00000224 +00000-0 +00000-0 0  9999,2 20402 013.5221 035.5758 0061761 251.4109 281.5383 00.98539790086723
2,GENERATED VIA SPACE-TRACK.ORG API,2018-07-06T21:37:48,18 SPCS,JCSAT 2,1990-001B,EARTH,TEME,UTC,SGP4,2018-07-06T08:25:42.822048,0.9853972,0.0061759,13.5226,35.5708,251.4145,99.6915,0,U,20402,999,8671,0.0,-2.23e-06,0,42657.391,1461.339,36542.704,36015.808,PAYLOAD,LARGE,JPN,1990-01-01,AFETR,,2305129,121606453,0 JCSAT 2,1 20402U 90001B   18187.35119007 -.00000223 +00000-0 +00000-0 0  9997,2 20402 013.5226 035.5708 0061759 251.4145 099.6915 00.98539720086711
2,GENERATED VIA SPACE-TRACK.ORG API,2018-07-07T06:13:04,18 SPCS,JCSAT 2,1990-001B,EARTH,TEME,UTC,SGP4,2018-07-06T20:28:06.174336,0.9853963,0.006174,13.5232,35.5658,251.4177,277.6547,0,U,20402,999,8673,0.0,-2.21e-06,0,42657.417,1461.34,36542.649,36015.915,PAYLOAD,LARGE,JPN,1990-01-01,AFETR,,2305232,121616977,0 JCSAT 2,1 20402U 90001B   18187.85284924 -.00000221 +00000-0 +00000-0 0  9991,2 20402 013.5232 035.5658 0061740 251.4177 277.6547 00.98539630086738
2,GENERATED VIA SPACE-TRACK.ORG API,2018-07-07T23:52:35,18 SPCS,JCSAT 2,1990-001B,EARTH,TEME,UTC,SGP4,2018-07-07T10:14:14.067744,0.98539536,0.0061737,13.5237,35.5601,251.417,121.1811,0,U,20402,999,8674,0.0,-2.18e-06,0,42657.444,1461.342,36542.663,36015.955,PAYLOAD,LARGE,JPN,1990-01-01,AFETR,,2305552,121631861,0 JCSAT 2,1 20402U 90001B   18188.42655171 -.00000218 +00000-0 +00000-0 0  9997,2 20402 013.5237 035.5601 0061737 251.4170 121.1811 00.98539536086743
2,GENERATED VIA SPACE-TRACK.ORG API,2018-07-08T15:02:16,18 SPCS,JCSAT 2,1990-001B,EARTH,TEME,UTC,SGP4,2018-07-08T10:19:52.626144,0.98539262,0.0061718,13.5248,35.5501,251.407,117.3359,0,U,20402,999,8673,0.0,-2.09e-06,0,42657.523,1461.346,36542.662,36016.114,PAYLOAD,LARGE,JPN,1990-01-01,AFETR,,2305786,121649056,0 JCSAT 2,1 20402U 90001B   18189.43047021 -.00000209  00000-0  00000+0 0  9997,2 20402  13.5248  35.5501 0061718 251.4070 117.3359  0.98539262 86731
2,GENERATED VIA SPACE-TRACK.ORG API,2018-07-09T21:48:46,18 SPCS,JCSAT 2,1990-001B,EARTH,TEME,UTC,SGP4,2018-07-09T10:25:23.215008,0.98538957,0.0061701,13.5258,35.5401,251.3989,113.4558,0,U,20402,999,8676,0.0,-1.96e-06,0,42657.611,1461.35,36542.678,36016.274,PAYLOAD,LARGE,JPN,1990-01-01,AFETR,,2306307,121671881,0 JCSAT 2,1 20402U 90001B   18190.43429647 -.00000196 +00000-0 +00000-0 0  9993,2 20402 013.5258 035.5401 0061701 251.3989 113.4558 00.98538957086762
2,GENERATED VIA SPACE-TRACK.ORG API,2018-07-10T15:05:43,18 SPCS,JCSAT 2,1990-001B,EARTH,TEME,UTC,SGP4,2018-07-10T10:30:57.663360,0.9853864,0.006169,13.5269,35.5299,251.373,109.6092,0,U,20402,999,8675,0.0,-1.8e-06,0,42657.702,1461.355,36542.723,36016.412,PAYLOAD,LARGE,JPN,1990-01-01,AFETR,,2306702,121692145,0 JCSAT 2,1 20402U 90001B   18191.43816740 -.00000180  00000-0  00000+0 0  9990,2 20402  13.5269  35.5299 0061690 251.3730 109.6092  0.98538640 86758
2,GENERATED VIA SPACE-TRACK.ORG API,2018-07-11T21:40:36,18 SPCS,JCSAT 2,1990-001B,EARTH,TEME,UTC,SGP4,2018-07-11T10:36:20.670624,0.98538266,0.0061682,13.5279,35.5198,251.355,105.7049,0,U,20402,999,8677,0.0,-1.62e-06,0,42657.81,1461.361,36542.797,36016.553,PAYLOAD,LARGE,JPN,1990-01-01,AFETR,,2307236,121721896,0 JCSAT 2,1 20402U 90001B   18192.44190591 -.00000162 +00000-0 +00000-0 0  9992,2 20402 013.5279 035.5198 0061682 251.3550 105.7049 00.98538266086773
2,GENERATED VIA SPACE-TRACK.ORG API,2018-07-12T20:39:40,18 SPCS,JCSAT 2,1990-001B,EARTH,TEME,UTC,SGP4,2018-07-12T10:41:53.486880,0.98537912,0.0061681,13.529,35.5097,251.3319,101.8457,0,U,20402,999,8677,0.0,-1.42e-06,0,42657.913,1461.366,36542.896,36016.659,PAYLOAD,LARGE,JPN,1990-01-01,AFETR,,2307641,121741038,0 JCSAT 2,1 20402U 90001B   18193.44575795 -.00000142  00000-0  00000+0 0  9993,2 20402  13.5290  35.5097 0061681 251.3319 101.8457  0.98537912 86773
2,GENERATED VIA SPACE-TRACK.ORG API,2018-07-12T21:55:37,18 SPCS,JCSAT 2,1990-001B,EARTH,TEME,UTC,SGP4,2018-07-12T10:41:53.486880,0.98537912,0.0061681,13.529,35.5097,251.3319,101.8457,0,U,20402,999,8678,0.0,-1.42e-06,0,42657.913,1461.366,36542.896,36016.659,PAYLOAD,LARGE,JPN,1990-01-01,AFETR,,2307688,121745475,0 JCSAT 2,1 20402U 90001B   18193.44575795 -.00000142 +00000-0 +00000-0 0  9994,2 20402 013.5290 035.5097 0061681 251.3319 101.8457 00.98537912086784
2,GENERATED VIA SPACE-TRACK.ORG API,2018-07-13T23:03:02,18 SPCS,JCSAT 2,1990-001B,EARTH,TEME,UTC,SGP4,2018-07-13T12:30:28.902240,0.98537558,0.0061687,13.5301,35.4989,251.3121,123.3674,0,U,20402,999,8680,0.0,-1.2e-06,0,42658.015,1461.371,36543.024,36016.735,PAYLOAD,LARGE,JPN,1990-01-01,AFETR,,2308102,121767512,0 JCSAT 2,1 20402U 90001B   18194.52116785 -.00000120 +00000-0 +00000-0 0  9990,2 20402 013.5301 035.4989 0061687 251.3121 123.3674 00.98537558086802
2,GENERATED VIA SPACE-TRACK.ORG API,2018-07-14T15:25:14,18 SPCS,JCSAT 2,1990-001B,EARTH,TEME,UTC,SGP4,2018-07-14T10:53:00.093120,0.98537245,0.0061692,13.531,35.4895,251.3003,94.1125,0,U,20402,999,8679,0.0,-1e-06,0,42658.105,1461.376,36543.136,36016.804,PAYLOAD,LARGE,JPN,1990-01-01,AFETR,,2308426,121785153,0 JCSAT 2,1 20402U 90001B   18195.45347330 -.00000100  00000-0  00000+0 0  9992,2 20402  13.5310  35.4895 0061692 251.3003  94.1125  0.98537245 86790
2,GENERATED VIA SPACE-TRACK.ORG API,2018-07-14T21:40:11,18 SPCS,JCSAT 2,1990-001B,EARTH,TEME,UTC,SGP4,2018-07-14T12:36:00.578880,0.98537225,0.0061695,13.5311,35.4887,251.3001,119.4892,0,U,20402,999,8681,0.0,-9.8e-07,0,42658.111,1461.376,36543.155,36016.797,PAYLOAD,LARGE,JPN,1990-01-01,AFETR,,2308515,121790003,0 JCSAT 2,1 20402U 90001B   18195.52500670 -.00000098 +00000-0 +00000-0 0  9995,2 20402 013.5311 035.4887 0061695 251.3001 119.4892 00.98537225086816
2,GENERATED VIA SPACE-TRACK.ORG API,2018-07-15T21:39:57,18 SPCS,JCSAT 2,1990-001B,EARTH,TEME,UTC,SGP4,2018-07-15T12:41:28.040928,0.98536961,0.006171,13.5322,35.4787,251.281,115.6007,0,U,20402,999,8682,0.0,-7.8e-07,0,42658.187,1461.38,36543.296,36016.808,PAYLOAD,LARGE,JPN,1990-01-01,AFETR,,2308967,121814466,0 JCSAT 2,1 20402U 90001B   18196.52879677 -.00000078 +00000-0 +00000-0 0  9990,2 20402 013.5322 035.4787 0061710 251.2810 115.6007 00.98536961086825
2,GENERATED VIA SPACE-TRACK.ORG API,2018-07-16T21:53:03,18 SPCS,JCSAT 2,1990-001B,EARTH,TEME,UTC,SGP4,2018-07-16T00:54:42.761088,0.98536794,0.0061719,13.5327,35.4736,251.2907,296.2252,0,U,20402,999,8682,0.0,-6.8e-07,0,42658.235,1461.383,36543.383,36016.818,PAYLOAD,LARGE,JPN,1990-01-01,AFETR,,2309451,121840089,0 JCSAT 2,1 20402U 90001B   18197.03799492 -.00000068 +00000-0 +00000-0 0  9992,2 20402 013.5327 035.4736 0061719 251.2907 296.2252 00.98536794086822
2,GENERATED VIA SPACE-TRACK.ORG API,2018-07-17T07:20:04,18 SPCS,JCSAT 2,1990-001B,EARTH,TEME,UTC,SGP4,2018-07-17T00:49:25.893408,0.98536649,0.0061739,13.5338,35.4636,251.2796,289.6836,0,U,20402,999,8681,0.0,-5e-07,0,42658.277,1461.385,36543.51,36016.774,PAYLOAD,LARGE,JPN,1990-01-01,AFETR,,2309703,121858652,0 JCSAT 2,1 20402U 90001B   18198.03432747 -.00000050  00000-0  00000+0 0  9990,2 20402  13.5338  35.4636 0061739 251.2796 289.6836  0.98536649 86813
2,GENERATED VIA SPACE-TRACK.ORG API,2018-07-18T22:14:16,18 SPCS,JCSAT 2,1990-001B,EARTH,TEME,UTC,SGP4,2018-07-18T12:58:09.441984,0.98536479,0.0061774,13.5353,35.4485,251.249,103.9821,0,U,20402,999,8684,0.0,-2.8e-07,0,42658.326,1461.387,36543.709,36016.674,PAYLOAD,LARGE,JPN,1990-01-01,AFETR,,2310466,121895953,0 JCSAT 2,1 20402U 90001B   18199.54038706 -.00000028 +00000-0 +00000-0 0  9990,2 20402 013.5353 035.4485 0061774 251.2490 103.9821 00.98536479086848
